IRIDIUM 126             
1 42809U 17039G   25343.16896774  .00000523  00000+0  17985-3 0  9990
2 42809  86.3970  73.0786 0001850  97.4635 262.6771 14.34216122442712
IRIDIUM 124             
1 42810U 17039H   25343.15522319  .00000649  00000+0  18677-3 0  9990
2 42810  86.4494   9.8064 0002192  98.1754 261.9695 14.43287502447703
IRIDIUM 128             
1 42811U 17039J   25343.08993888  .00000395  00000+0  13405-3 0  9998
2 42811  86.3960 104.6450 0002300 101.5216 258.6238 14.34215447442730
IRIDIUM 121             
1 42812U 17039K   25343.18799823  .00000335  00000+0  11252-3 0  9995
2 42812  86.3969  73.0969 0002188  96.0489 264.0956 14.34217842442591
IRIDIUM 133             
1 42955U 17061A   25342.84258236  .00000425  00000+0  14474-3 0  9997
2 42955  86.3966 104.8619 0002026  97.9055 262.2370 14.34212704427495
IRIDIUM 100             
1 42956U 17061B   25342.83622543  .00000621  00000+0  21452-3 0  9995
2 42956  86.3962 104.7873 0001962  97.9477 262.1942 14.34222360427492
IRIDIUM 122             
1 42957U 17061C   25343.08359626 -.00000007  00000+0 -94467-5 0  9991
2 42957  86.3964 104.6837 0001804  97.0924 263.0477 14.34217117427539
IRIDIUM 129             
1 42958U 17061D   25342.89965873  .00000429  00000+0  14622-3 0  9996
2 42958  86.3962 104.8253 0001871  84.1577 275.9832 14.34214761427525
